[{"OBJECT_NAME":"STARLINK-5134","OBJECT_ID":"2022-125N","EPOCH":"2026-03-09T15:19:52.432320","MEAN_MOTION":15.08839594,"ECCENTRICITY":0.0001085,"INCLINATION":53.2167,"RA_OF_ASC_NODE":204.4704,"ARG_OF_PERICENTER":87.3803,"MEAN_ANOMALY":272.7313,"EPHEMERIS_TYPE":0,"CLASSIFICATION_TYPE":"U","NORAD_CAT_ID":53976,"ELEMENT_SET_NO":999,"REV_AT_EPOCH":18959,"BSTAR":-1.5088e-5,"MEAN_MOTION_DOT":-5.28e-6,"MEAN_MOTION_DDOT":0},{"OBJECT_NAME":"AAC-HSI-SAT1","OBJECT_ID":"2023-054AZ","EPOCH":"2026-03-09T21:58:39.446112","MEAN_MOTION":15.121108,"ECCENTRICITY":0.00115868,"INCLINATION":97.3836,"RA_OF_ASC_NODE":308.6521,"ARG_OF_PERICENTER":105.3166,"MEAN_ANOMALY":254.9346,"EPHEMERIS_TYPE":0,"CLASSIFICATION_TYPE":"U","NORAD_CAT_ID":56225,"ELEMENT_SET_NO":999,"REV_AT_EPOCH":16036,"BSTAR":0.00016323049,"MEAN_MOTION_DOT":2.752e-5,"MEAN_MOTION_DDOT":0}]
